QIANFAN-1               
1 60379U 24140A   25268.25833463  .00000102  00000+0  13911-3 0  9993
2 60379  88.9771 307.4172 0019642  83.5569 276.7818 13.50973850 56752
QIANFAN-2               
1 60380U 24140B   25268.28700634  .00000111  00000+0  15233-3 0  9990
2 60380  88.9757 307.2643 0014480  60.0785 300.1802 13.50965998 56810
QIANFAN-3               
1 60381U 24140C   25268.29529156  .00000112  00000+0  15469-3 0  9992
2 60381  88.9752 307.4019 0015858  70.6989 289.5876 13.50966123 56720
QIANFAN-4               
1 60382U 24140D   25268.34473948  .00000089  00000+0  11835-3 0  9992
2 60382  88.9776 307.2749 0014760  62.0933 298.1711 13.50973208 56850
QIANFAN-5               
1 60383U 24140E   25268.24595686  .00000104  00000+0  14235-3 0  9991
2 60383  88.9750 307.4327 0017288  80.4529 279.8575 13.50969081 56702
QIANFAN-6               
1 60384U 24140F   25268.34063199  .00000082  00000+0  10863-3 0  9990
2 60384  88.9778 307.1482 0015007  67.2422 293.0313 13.50965012 56915
QIANFAN-7               
1 60385U 24140G   25268.31092656  .00000627  00000+0  24888-3 0  9995
2 60385  88.9779 302.9503 0012746 303.5329  56.4647 14.27557672 59203
QIANFAN-8               
1 60386U 24140H   25268.34881080  .00000095  00000+0  12857-3 0  9998
2 60386  88.9780 307.3835 0018493  68.3001 292.0117 13.50968904 56768
